{"type": "FeatureCollection", "features": [ {"type": "Feature", "properties": {"norad_id": 30272, "name": "FENGYUN 1C DEB", "group": "fengyun-1c-debris", "lat": -12.283314867748471, "lon": 68.93195404172931, "alt_km": 841.4371601728271, "timestamp": "2025-12-25T07:41:09.998214+00:00", "meta": {"OBJECT_NAME": "FENGYUN 1C DEB", "OBJECT_ID": "1999-025YH", "EPOCH": "2025-12-24T21:33:37.963584", "MEAN_MOTION": 14.14762293, "ECCENTRICITY": 0.00501909, "INCLINATION": 98.9002, "RA_OF_ASC_NODE": 66.5562, "ARG_OF_PERICENTER": 69.5825, "MEAN_ANOMALY": 291.0728, "EPHEMERIS_TYPE": 0, "CLASSIFICATION_TYPE": "U", "NORAD_CAT_ID": 30272, "ELEMENT_SET_NO": 999, "REV_AT_EPOCH": 97028, "BSTAR": 0.0010759874, "MEAN_MOTION_DOT": 2.055e-05, "MEAN_MOTION_DDOT": 0}, "tle": {"line1": "1 30272U 99025YH  25358.89835606  .00002055  00000+0  10760-2 0  9994", "line2": "2 30272  98.9002  66.5562 0050190  69.5825 291.0728 14.14762293970288"}}, "geometry": {"type": "Point", "coordinates": [68.93195404172931, -12.283314867748471]}}, {"type": "Feature", "properties": {"norad_id": 30273, "name": "FENGYUN 1C DEB", "group": "fengyun-1c-debris", "lat": 40.518828679314986, "lon": -158.84433438920368, "alt_km": 869.85335289863, "timestamp": "2025-12-25T07:41:09.998223+00:00", "meta": {"OBJECT_NAME": "FENGYUN 1C DEB", "OBJECT_ID": "1999-025YJ", "EPOCH": "2025-12-24T21:19:32.356416", "MEAN_MOTION": 14.02674652, "ECCENTRICITY": 0.00606767, "INCLINATION": 98.8392, "RA_OF_ASC_NODE": 13.0944, "ARG_OF_PERICENTER": 215.3001, "MEAN_ANOMALY": 265.5298, "EPHEMERIS_TYPE": 0, "CLASSIFICATION_TYPE": "U", "NORAD_CAT_ID": 30273, "ELEMENT_SET_NO": 999, "REV_AT_EPOCH": 96699, "BSTAR": 0.0003089768, "MEAN_MOTION_DOT": 4.42e-06, "MEAN_MOTION_DDOT": 0}, "tle": {"line1": "1 30273U 99025YJ  25358.88856894  .00000442  00000+0  30898-3 0  9999", "line2": "2 30273  98.8392  13.0944 0060676 215.3001 265.5298 14.02674652966997"}}, "geometry": {"type": "Point", "coordinates": [-158.84433438920368, 40.518828679314986]}}, {"type": "Feature", "properties": {"norad_id": 30274, "name": "FENGYUN 1C DEB", "group": "fengyun-1c-debris", "lat": 23.187919959920677, "lon": 125.30421348184788, "alt_km": 722.2620114631545, "timestamp": "2025-12-25T07:41:09.998233+00:00", "meta": {"OBJECT_NAME": "FENGYUN 1C DEB", "OBJECT_ID": "1999-025YK", "EPOCH": "2025-12-24T15:37:19.682400", "MEAN_MOTION": 14.51852988, "ECCENTRICITY": 0.00046991, "INCLINATION": 99.3018, "RA_OF_ASC_NODE": 128.5896, "ARG_OF_PERICENTER": 188.8537, "MEAN_ANOMALY": 298.3788, "EPHEMERIS_TYPE": 0, "CLASSIFICATION_TYPE": "U", "NORAD_CAT_ID": 30274, "ELEMENT_SET_NO": 999, "REV_AT_EPOCH": 98383, "BSTAR": 0.0027070942, "MEAN_MOTION_DOT": 0.00010867, "MEAN_MOTION_DDOT": 0}, "tle": {"line1": "1 30274U 99025YK  25358.65092225  .00010867  00000+0  27071-2 0  9995", "line2": "2 30274  99.3018 128.5896 0004699 188.8537 298.3788 14.51852988983832"}}, "geometry": {"type": "Point", "coordinates": [125.30421348184788, 23.187919959920677]}}, {"type": "Feature", "properties": {"norad_id": 30275, "name": "FENGYUN 1C DEB", "group": "fengyun-1c-debris", "lat": 45.363475354129335, "lon": 74.93943486257011, "alt_km": 743.2460768513702, "timestamp": "2025-12-25T07:41:09.998243+00:00", "meta": {"OBJECT_NAME": "FENGYUN 1C DEB", "OBJECT_ID": "1999-025YL", "EPOCH": "2025-12-24T12:05:54.712608", "MEAN_MOTION": 14.45462294, "ECCENTRICITY": 0.00396995, "INCLINATION": 98.6273, "RA_OF_ASC_NODE": 82.9551, "ARG_OF_PERICENTER": 152.5326, "MEAN_ANOMALY": 329.4887, "EPHEMERIS_TYPE": 0, "CLASSIFICATION_TYPE": "U", "NORAD_CAT_ID": 30275, "ELEMENT_SET_NO": 999, "REV_AT_EPOCH": 98254, "BSTAR": 0.002298226, "MEAN_MOTION_DOT": 8.137e-05, "MEAN_MOTION_DDOT": 0}, "tle": {"line1": "1 30275U 99025YL  25358.50410547  .00008137  00000+0  22982-2 0  9994", "line2": "2 30275  98.6273  82.9551 0039699 152.5326 329.4887 14.45462294982544"}}, "geometry": {"type": "Point", "coordinates": [74.93943486257011, 45.363475354129335]}}, {"type": "Feature", "properties": {"norad_id": 30276, "name": "FENGYUN 1C DEB", "group": "fengyun-1c-debris", "lat": -58.93600081545614, "lon": -123.95396242542185, "alt_km": 825.6416349444407, "timestamp": "2025-12-25T07:41:09.998253+00:00", "meta": {"OBJECT_NAME": "FENGYUN 1C DEB", "OBJECT_ID": "1999-025YM", "EPOCH": "2025-12-24T22:09:07.880832", "MEAN_MOTION": 14.27095109, "ECCENTRICITY": 0.00239223, "INCLINATION": 98.8584, "RA_OF_ASC_NODE": 70.6482, "ARG_OF_PERICENTER": 56.0779, "MEAN_ANOMALY": 304.2671, "EPHEMERIS_TYPE": 0, "CLASSIFICATION_TYPE": "U", "NORAD_CAT_ID": 30276, "ELEMENT_SET_NO": 999, "REV_AT_EPOCH": 97704, "BSTAR": 0.0012845801, "MEAN_MOTION_DOT": 3.096e-05, "MEAN_MOTION_DDOT": 0}, "tle": {"line1": "1 30276U 99025YM  25358.92300788  .00003096  00000+0  12846-2 0  9993", "line2": "2 30276  98.8584  70.6482 0023922  56.0779 304.2671 14.27095109977049"}}, "geometry": {"type": "Point", "coordinates": [-123.95396242542185, -58.93600081545614]}}, {"type": "Feature", "properties": {"norad_id": 30277, "name": "FENGYUN 1C DEB", "group": "fengyun-1c-debris", "lat": 58.37707383669326, "lon": 55.16501831755759, "alt_km": 829.1984572799802, "timestamp": "2025-12-25T07:41:09.998264+00:00", "meta": {"OBJECT_NAME": "FENGYUN 1C DEB", "OBJECT_ID": "1999-025YN", "EPOCH": "2025-12-24T21:29:38.463648", "MEAN_MOTION": 14.13636813, "ECCENTRICITY": 0.01239633, "INCLINATION": 98.9715, "RA_OF_ASC_NODE": 69.6047, "ARG_OF_PERICENTER": 143.7671, "MEAN_ANOMALY": 277.258, "EPHEMERIS_TYPE": 0, "CLASSIFICATION_TYPE": "U", "NORAD_CAT_ID": 30277, "ELEMENT_SET_NO": 999, "REV_AT_EPOCH": 96961, "BSTAR": 0.0011618748, "MEAN_MOTION_DOT": 2.316e-05, "MEAN_MOTION_DDOT": 0}, "tle": {"line1": "1 30277U 99025YN  25358.89558407  .00002316  00000+0  11619-2 0  9994", "line2": "2 30277  98.9715  69.6047 0123963 143.7671 277.2580 14.13636813969613"}}, "geometry": {"type": "Point", "coordinates": [55.16501831755759, 58.37707383669326]}}, {"type": "Feature", "properties": {"norad_id": 30279, "name": "FENGYUN 1C DEB", "group": "fengyun-1c-debris", "lat": -42.379219136025405, "lon": -57.003571217227254, "alt_km": 789.9423018838106, "timestamp": "2025-12-25T07:41:09.998274+00:00", "meta": {"OBJECT_NAME": "FENGYUN 1C DEB", "OBJECT_ID": "1999-025YQ", "EPOCH": "2025-12-24T18:31:16.495680", "MEAN_MOTION": 14.23151975, "ECCENTRICITY": 0.02197048, "INCLINATION": 99.1519, "RA_OF_ASC_NODE": 293.9674, "ARG_OF_PERICENTER": 38.4093, "MEAN_ANOMALY": 352.3213, "EPHEMERIS_TYPE": 0, "CLASSIFICATION_TYPE": "U", "NORAD_CAT_ID": 30279, "ELEMENT_SET_NO": 999, "REV_AT_EPOCH": 97782, "BSTAR": 0.00098233329, "MEAN_MOTION_DOT": 2.794e-05, "MEAN_MOTION_DDOT": 0}, "tle": {"line1": "1 30279U 99025YQ  25358.77171870  .00002794  00000+0  98233-3 0  9996", "line2": "2 30279  99.1519 293.9674 0219704  38.4093 352.3213 14.23151975977827"}}, "geometry": {"type": "Point", "coordinates": [-57.003571217227254, -42.379219136025405]}}, {"type": "Feature", "properties": {"norad_id": 30280, "name": "FENGYUN 1C DEB", "group": "fengyun-1c-debris", "lat": 46.741207546529836, "lon": -21.28327373844736, "alt_km": 917.8242067957917, "timestamp": "2025-12-25T07:41:09.998284+00:00", "meta": {"OBJECT_NAME": "FENGYUN 1C DEB", "OBJECT_ID": "1999-025YR", "EPOCH": "2025-12-24T21:26:39.772896", "MEAN_MOTION": 13.98333275, "ECCENTRICITY": 0.00798792, "INCLINATION": 98.7755, "RA_OF_ASC_NODE": 347.7565, "ARG_OF_PERICENTER": 295.6221, "MEAN_ANOMALY": 124.056, "EPHEMERIS_TYPE": 0, "CLASSIFICATION_TYPE": "U", "NORAD_CAT_ID": 30280, "ELEMENT_SET_NO": 999, "REV_AT_EPOCH": 96576, "BSTAR": 0.00012441606, "MEAN_MOTION_DOT": 1.4e-06, "MEAN_MOTION_DDOT": 0}, "tle": {"line1": "1 30280U 99025YR  25358.89351589  .00000140  00000+0  12442-3 0  9999", "line2": "2 30280  98.7755 347.7565 0079879 295.6221 124.0560 13.98333275965765"}}, "geometry": {"type": "Point", "coordinates": [-21.28327373844736, 46.741207546529836]}}, {"type": "Feature", "properties": {"norad_id": 30281, "name": "FENGYUN 1C DEB", "group": "fengyun-1c-debris", "lat": 78.5029590601357, "lon": -141.917008953886, "alt_km": 854.9637084140186, "timestamp": "2025-12-25T07:41:09.998294+00:00", "meta": {"OBJECT_NAME": "FENGYUN 1C DEB", "OBJECT_ID": "1999-025YS", "EPOCH": "2025-12-24T22:58:10.136928", "MEAN_MOTION": 14.10484586, "ECCENTRICITY": 0.00283503, "INCLINATION": 98.7578, "RA_OF_ASC_NODE": 348.4517, "ARG_OF_PERICENTER": 201.5989, "MEAN_ANOMALY": 213.0033, "EPHEMERIS_TYPE": 0, "CLASSIFICATION_TYPE": "U", "NORAD_CAT_ID": 30281, "ELEMENT_SET_NO": 999, "REV_AT_EPOCH": 97393, "BSTAR": 0.00017746138, "MEAN_MOTION_DOT": 2.74e-06, "MEAN_MOTION_DDOT": 0}, "tle": {"line1": "1 30281U 99025YS  25358.95706177  .00000274  00000+0  17746-3 0  9994", "line2": "2 30281  98.7578 348.4517 0028350 201.5989 213.0033 14.10484586973938"}}, "geometry": {"type": "Point", "coordinates": [-141.917008953886, 78.5029590601357]}}, {"type": "Feature", "properties": {"norad_id": 30282, "name": "FENGYUN 1C DEB", "group": "fengyun-1c-debris", "lat": -35.8955876906486, "lon": 8.16846563239804, "alt_km": 703.9655227432968, "timestamp": "2025-12-25T07:41:09.998304+00:00", "meta": {"OBJECT_NAME": "FENGYUN 1C DEB", "OBJECT_ID": "1999-025YT", "EPOCH": "2025-12-24T20:31:41.180736", "MEAN_MOTION": 14.1299304, "ECCENTRICITY": 0.02096486, "INCLINATION": 98.5018, "RA_OF_ASC_NODE": 1.5116, "ARG_OF_PERICENTER": 327.3235, "MEAN_ANOMALY": 152.9173, "EPHEMERIS_TYPE": 0, "CLASSIFICATION_TYPE": "U", "NORAD_CAT_ID": 30282, "ELEMENT_SET_NO": 999, "REV_AT_EPOCH": 97522, "BSTAR": 0.00032814507, "MEAN_MOTION_DOT": 7.1e-06, "MEAN_MOTION_DDOT": 0}, "tle": {"line1": "1 30282U 99025YT  25358.85533774  .00000710  00000+0  32815-3 0  9994", "line2": "2 30282  98.5018   1.5116 0209648 327.3235 152.9173 14.12993040975222"}}, "geometry": {"type": "Point", "coordinates": [8.16846563239804, -35.8955876906486]}}]}